NORAD_CAT_ID,OBJECT_NAME,OBJECT_TYPE,EPOCH,MEAN_MOTION,ECCENTRICITY,INCLINATION,RA_OF_ASC_NODE,ARG_OF_PERICENTER,MEAN_ANOMALY,BSTAR,MEAN_MOTION_DOT,MEAN_MOTION_DDOT,TLE_LINE0,TLE_LINE1,TLE_LINE2,SEMIMAJOR_AXIS,PERIOD,APOGEE,PERIGEE,DECAYED
56450.0,STARLINK-5970,PAYLOAD,2024-05-09 21:06:47,14.98333092,0.0003242,70.0003,30.8121,269.7088,90.3699,0.00014823,1.676e-05,0.0,0 STARLINK-5970,1 56450U 23064C   24130.87971751  .00001676  00000-0  14823-3 0  9991,2 56450  70.0003  30.8121 0003242 269.7088  90.3699 14.98333092 55422,6950.183,96.107,574.302,569.795,0.0
56450.0,STARLINK-5970,PAYLOAD,2024-05-09 22:42:55,14.98331043,0.0003441,70.0,30.6444,271.8283,88.2482,0.00019313,2.212e-05,0.0,0 STARLINK-5970,1 56450U 23064C   24130.94647742  .00002212  00000-0  19313-3 0  9995,2 56450  70.0000  30.6444 0003441 271.8283  88.2482 14.98331043 55078,6950.19,96.107,574.446,569.663,0.0
56450.0,STARLINK-5970,PAYLOAD,2024-05-10 03:31:18,14.98343969,0.0003114,70.0005,30.1404,262.9217,97.1588,0.00025711,2.977e-05,0.0,0 STARLINK-5970,1 56450U 23064C   24131.14674630  .00002977  00000-0  25711-3 0  9991,2 56450  70.0005  30.1404 0003114 262.9217  97.1588 14.98343969 55468,6950.15,96.106,574.179,569.85,0.0
56450.0,STARLINK-5970,PAYLOAD,2024-05-10 09:55:51,14.9833381,0.0002547,70.0021,29.4648,266.8006,93.2862,0.00019935,2.287e-05,0.0,0 STARLINK-5970,1 56450U 23064C   24131.41379473  .00002287  00000-0  19935-3 0  9993,2 56450  70.0021  29.4648 0002547 266.8006  93.2862 14.98333810 55506,6950.181,96.107,573.816,570.276,0.0
56450.0,STARLINK-5970,PAYLOAD,2024-05-10 21:08:48,14.98332166,0.0002901,70.0017,28.2893,262.4273,97.6556,0.00010118,1.115e-05,0.0,0 STARLINK-5970,1 56450U 23064C   24131.88111672  .00001115  00000-0  10118-3 0  9992,2 56450  70.0017  28.2893 0002901 262.4273  97.6556 14.98332166 55211,6950.186,96.107,574.067,570.035,0.0
56450.0,STARLINK-5970,PAYLOAD,2024-05-11 03:33:19,14.98353871,0.0002978,70.0011,27.6139,290.9564,69.1277,0.00031486,3.668e-05,0.0,0 STARLINK-5970,1 56450U 23064C   24132.14813905  .00003668  00000-0  31486-3 0  9996,2 56450  70.0011  27.6139 0002978 290.9564  69.1277 14.98353871 55618,6950.119,96.105,574.054,569.914,0.0
56450.0,STARLINK-5970,PAYLOAD,2024-05-11 21:10:52,14.9829404,0.0004328,70.0001,25.7631,297.221,62.8507,-0.00067223,-8.098e-05,0.0,0 STARLINK-5970,1 56450U 23064C   24132.88255555 -.00008098  00000-0 -67223-3 0  9990,2 56450  70.0001  25.7631 0004328 297.2210  62.8507 14.98294040 55722,6950.304,96.109,575.177,569.161,0.0
56450.0,STARLINK-5970,PAYLOAD,2024-05-11 22:47:00,14.98294007,0.0002556,70.0016,25.5953,262.1441,97.9428,-0.00065518,-7.894e-05,0.0,0 STARLINK-5970,1 56450U 23064C   24132.94931438 -.00007894  00000-0 -65518-3 0  9996,2 56450  70.0016  25.5953 0002556 262.1441  97.9428 14.98294007 55376,6950.304,96.109,573.946,570.393,0.0
56450.0,STARLINK-5970,PAYLOAD,2024-05-12 09:59:59,14.9827945,0.0002745,70.0012,24.4174,264.9462,95.1383,-0.00078247,-9.404e-05,0.0,0 STARLINK-5970,1 56450U 23064C   24133.41665810 -.00009404  00000-0 -78247-3 0  9999,2 56450  70.0012  24.4174 0002745 264.9462  95.1383 14.98279450 55441,6950.349,96.11,574.122,570.306,0.0
56450.0,STARLINK-5970,PAYLOAD,2024-05-12 21:12:54,14.98300122,0.0002556,70.0013,23.2388,265.2007,94.8861,-0.00031029,-3.79e-05,0.0,0 STARLINK-5970,1 56450U 23064C   24133.88396457 -.00003790  00000-0 -31029-3 0  9997,2 56450  70.0013  23.2388 0002556 265.2007  94.8861 14.98300122 55870,6950.285,96.109,573.927,570.374,0.0
56450.0,STARLINK-5970,PAYLOAD,2024-05-12 22:49:02,14.98298724,0.0002564,70.0022,23.0733,251.6459,108.4421,-0.000258,-3.167e-05,0.0,0 STARLINK-5970,1 56450U 23064C   24133.95072473 -.00003167  00000-0 -25800-3 0  9992,2 56450  70.0022  23.0733 0002564 251.6459 108.4421 14.98298724 55521,6950.29,96.109,573.937,570.373,0.0
56450.0,STARLINK-5970,PAYLOAD,2024-05-13 02:01:17,14.98321153,0.0002799,70.0008,22.7336,261.857,98.2271,-0.00012464,-1.579e-05,0.0,0 STARLINK-5970,1 56450U 23064C   24134.08422832 -.00001579  00000-0 -12464-3 0  9992,2 56450  70.0008  22.7336 0002799 261.8570  98.2271 14.98321153 55901,6950.22,96.108,574.031,570.14,0.0
56450.0,STARLINK-5970,PAYLOAD,2024-05-13 10:01:56,14.98343645,0.0003181,69.9999,21.8896,275.0955,84.9841,-0.00012708,-1.61e-05,0.0,0 STARLINK-5970,1 56450U 23064C   24134.41801493 -.00001610  00000-0 -12708-3 0  9990,2 56450  69.9999  21.8896 0003181 275.0955  84.9841 14.98343645 55958,6950.151,96.106,574.227,569.805,0.0
56450.0,STARLINK-5970,PAYLOAD,2024-05-13 16:26:28,14.98334149,0.0003364,69.9998,21.2163,270.0719,90.0054,1.8155e-05,1.24e-06,0.0,0 STARLINK-5970,1 56450U 23064C   24134.68505652  .00000124  00000-0  18155-4 0  9997,2 56450  69.9998  21.2163 0003364 270.0719  90.0054 14.98334149 55632,6950.18,96.107,574.383,569.707,0.0
56450.0,STARLINK-5970,PAYLOAD,2024-05-14 02:03:16,14.98317127,0.0003114,69.9998,20.2074,270.0834,89.9968,0.00065189,7.691e-05,0.0,0 STARLINK-5970,1 56450U 23064C   24135.08561150  .00007691  00000-0  65189-3 0  9991,2 56450  69.9998  20.2074 0003114 270.0834  89.9968 14.98317127 56058,6950.233,96.108,574.262,569.933,0.0
56450.0,STARLINK-5970,PAYLOAD,2024-05-14 10:03:57,14.98317171,0.0003225,70.0006,19.3645,263.644,96.4352,0.00073958,8.74e-05,0.0,0 STARLINK-5970,1 56450U 23064C   24135.41941161  .00008740  00000-0  73958-3 0  9991,2 56450  70.0006  19.3645 0003225 263.6440  96.4352 14.98317171 55742,6950.233,96.108,574.339,569.856,0.0
56450.0,STARLINK-5970,PAYLOAD,2024-05-14 22:53:00,14.98355927,0.0003257,69.9996,18.0194,269.7388,90.3398,0.00048601,5.715e-05,0.0,0 STARLINK-5970,1 56450U 23064C   24135.95347253  .00005715  00000-0  48601-3 0  9998,2 56450  69.9996  18.0194 0003257 269.7388  90.3398 14.98355927 55828,6950.113,96.105,574.241,569.714,0.0
56450.0,STARLINK-5970,PAYLOAD,2024-05-15 02:05:15,14.98361868,0.0003089,70.0002,17.6825,268.5091,91.5715,0.00054033,6.365e-05,0.0,0 STARLINK-5970,1 56450U 23064C   24136.08698504  .00006365  00000-0  54033-3 0  9999,2 56450  70.0002  17.6825 0003089 268.5091  91.5715 14.98361868 56206,6950.094,96.105,574.106,569.812,0.0
56450.0,STARLINK-5970,PAYLOAD,2024-05-15 19:42:45,14.98345826,0.0003256,69.9988,15.8311,275.8504,84.2284,-7.7307e-05,-1.016e-05,0.0,0 STARLINK-5970,1 56450U 23064C   24136.82136099 -.00001016  00000-0 -77307-4 0  9997,2 56450  69.9988  15.8311 0003256 275.8504  84.2284 14.98345826 56310,6950.144,96.106,574.272,569.746,0.0
56450.0,STARLINK-5970,PAYLOAD,2024-05-15 22:55:01,14.98346199,0.0003746,69.9982,15.4926,272.4749,87.5981,-0.00021616,-2.673e-05,0.0,0 STARLINK-5970,1 56450U 23064C   24136.95488200 -.00002673  00000-0 -21616-3 0  9996,2 56450  69.9982  15.4926 0003746 272.4749  87.5981 14.98346199 55975,6950.143,96.106,574.611,569.404,0.0
56450.0,STARLINK-5970,PAYLOAD,2024-05-16 08:31:49,14.98345064,0.0003001,70.0002,14.484,272.7367,87.3448,-0.00019398,-2.408e-05,0.0,0 STARLINK-5970,1 56450U 23064C   24137.35543847 -.00002408  00000-0 -19398-3 0  9990,2 56450  70.0002  14.4840 0003001 272.7367  87.3448 14.98345064 56032,6950.146,96.106,574.097,569.926,0.0
56450.0,STARLINK-5970,PAYLOAD,2024-05-17 02:09:16,14.98430207,0.0003164,70.0012,12.6328,267.1649,92.9148,-0.001384,-0.00016611,0.0,0 STARLINK-5970,1 56450U 23064C   24138.08977032 -.00016611  00000-0 -13840-2 0  9994,2 56450  70.0012  12.6328 0003164 267.1649  92.9148 14.98430207 56500,6949.883,96.101,573.947,569.549,0.0
56450.0,STARLINK-5970,PAYLOAD,2024-05-17 08:33:49,14.98344184,0.0002291,70.0022,11.9584,273.1265,86.9632,-0.0003229,-3.945e-05,0.0,0 STARLINK-5970,1 56450U 23064C   24138.35682791 -.00003945  00000-0 -32290-3 0  9996,2 56450  70.0022  11.9584 0002291 273.1265  86.9632 14.98344184 56541,6950.149,96.106,573.606,570.422,0.0
56450.0,STARLINK-5970,PAYLOAD,2024-05-17 21:22:55,14.9831778,0.0002535,70.0006,10.6143,266.1537,93.9332,-6.9718e-05,-9.24e-06,0.0,0 STARLINK-5970,1 56450U 23064C   24138.89092132 -.00000924  00000-0 -69718-4 0  9999,2 56450  70.0006  10.6143 0002535 266.1537  93.9332 14.98317780 56621,6950.231,96.108,573.858,570.334,0.0
56450.0,STARLINK-5970,PAYLOAD,2024-05-18 08:35:50,14.9833672,0.0003307,69.9993,9.4335,270.026,90.052,-1.4849e-05,-2.7e-06,0.0,0 STARLINK-5970,1 56450U 23064C   24139.35822768 -.00000270  00000-0 -14849-4 0  9996,2 56450  69.9993   9.4335 0003307 270.0260  90.0520 14.98336720 56696,6950.172,96.107,574.336,569.739,0.0
56450.0,STARLINK-5970,PAYLOAD,2024-05-18 21:24:54,14.98349367,0.0002986,70.0002,8.0871,265.4883,94.5935,-1.5842e-06,-1.12e-06,0.0,0 STARLINK-5970,1 56450U 23064C   24139.89229829 -.00000112  00000-0 -15842-5 0  9994,2 56450  70.0002   8.0871 0002986 265.4883  94.5935 14.98349367 56770,6950.133,96.106,574.073,569.923,0.0
56450.0,STARLINK-5970,PAYLOAD,2024-05-19 00:37:09,14.98357617,0.0003094,69.9999,7.7513,261.3654,98.7154,8.7644e-05,9.54e-06,0.0,0 STARLINK-5970,1 56450U 23064C   24140.02580810  .00000954  00000-0  87644-4 0  9991,2 56450  69.9999   7.7513 0003094 261.3654  98.7154 14.98357617 56791,6950.107,96.105,574.123,569.822,0.0
56450.0,STARLINK-5970,PAYLOAD,2024-05-19 19:50:49,14.98307519,0.0002914,70.0004,5.7328,266.9561,93.1265,-4.9003e-05,-6.77e-06,0.0,0 STARLINK-5970,1 56450U 23064C   24140.82696559 -.00000677  00000-0 -49003-4 0  9998,2 56450  70.0004   5.7328 0002914 266.9561  93.1265 14.98307519 56913,6950.262,96.108,574.153,570.102,0.0
56450.0,STARLINK-5970,PAYLOAD,2024-05-20 00:39:13,14.98313719,0.0003187,69.9997,5.2265,267.2581,92.8213,-2.1911e-05,-3.54e-06,0.0,0 STARLINK-5970,1 56450U 23064C   24141.02724272 -.00000354  00000-0 -21911-4 0  9995,2 56450  69.9997   5.2265 0003187 267.2581  92.8213 14.98313719 56946,6950.243,96.108,574.323,569.893,0.0
56450.0,STARLINK-5970,PAYLOAD,2024-05-20 15:04:25,14.9833038,0.000362,69.9989,3.7092,276.3303,83.7443,-8.4517e-05,-1.101e-05,0.0,0 STARLINK-5970,1 56450U 23064C   24141.62807665 -.00001101  00000-0 -84517-4 0  9991,2 56450  69.9989   3.7092 0003620 276.3303  83.7443 14.98330380 56670,6950.192,96.107,574.573,569.541,0.0
